SatCatId,ObjectName,LaunchYear,OrbitalPeriod,LaunchMass,StatusCode,Inclination,Status,UcsData,OrbitClassEstimated,LaunchSiteCountry,Owner,UseType,Purpose,LaunchVehicleClass,TLE1,TLE2,MeanMotion,Eccentricity,OrbitClass
55382,STARLINK-5576,2023,95.84,290.0,+,43.0,Active,1,LEO,USA,USA,Commercial,Communications,Falcon,1 55382U 23013BD  24046.43288983  .00007794  00000+0  59128-3 0  9997,2 55382  43.0023  85.9980 0001475 258.8244 101.2433 15.02544352 58251,15.02544352,0.0001475,LEO
55383,STARLINK-5531,2023,95.84,290.0,+,43.0,Active,1,LEO,USA,USA,Commercial,Communications,Falcon,1 55383U 23013BE  24046.37026256  .00002179  00000+0  17636-3 0  9994,2 55383  43.0030  60.3842 0001098 253.5021 106.5701 15.02532883 58544,15.02532883,0.0001098,LEO
55384,STARLINK-5537,2023,95.84,290.0,+,43.0,Active,1,LEO,USA,USA,Commercial,Communications,Falcon,1 55384U 23013BF  24046.43067529 -.00000106  00000+0  72353-5 0  9998,2 55384  43.0023  85.9819 0000846 265.8202  94.2544 15.02529603 58253,15.02529603,8.46e-05,LEO
55385,STARLINK-5556,2023,95.84,290.0,+,43.0,Active,1,LEO,USA,USA,Commercial,Communications,Falcon,1 55385U 23013BG  24046.41624164  .00004620  00000+0  35689-3 0  9994,2 55385  43.0023  85.8719 0001194 271.7757  88.2948 15.02533996 58251,15.02533996,0.0001194,LEO
55386,STARLINK-5555,2023,95.84,290.0,+,43.0,Active,1,LEO,USA,USA,Commercial,Communications,Falcon,1 55386U 23013BH  24046.41958006  .00003048  00000+0  24067-3 0  9991,2 55386  43.0033  85.8981 0001433 343.1274  16.9520 15.02529637 58259,15.02529637,0.0001433,LEO
55391,STARLINK-5077,2023,96.16,290.0,+,70.0,Active,1,LEO,USA,USA,Commercial,Communications,Falcon,1 55391U 23014A   24046.69807238 -.00000666  00000+0 -49125-4 0  9996,2 55391  70.0018 162.2494 0002536 263.7117  96.3753 14.97513604 58345,14.97513604,0.0002536,LEO
55392,STARLINK-5085,2023,96.11,290.0,+,70.0,Active,1,LEO,USA,USA,Commercial,Communications,Falcon,1 55392U 23014B   24046.58991859 -.00000130  00000+0 -30991-5 0  9996,2 55392  70.0001 143.2080 0003036 262.7790  97.3024 14.98326679 59742,14.98326679,0.0003036,LEO
55393,STARLINK-4786,2023,96.11,290.0,+,70.0,Active,1,LEO,USA,USA,Commercial,Communications,Falcon,1 55393U 23014C   24046.73200586  .00001715  00000+0  15153-3 0  9993,2 55393  70.0007 162.7834 0002970 270.5385  89.5434 14.98329104 58333,14.98329104,0.000297,LEO
55394,STARLINK-5230,2023,96.11,290.0,+,70.0,Active,1,LEO,USA,USA,Commercial,Communications,Falcon,1 55394U 23014D   24046.59431069 -.00005804  00000+0 -47895-3 0  9993,2 55394  70.0011 163.0927 0002588 263.6060  96.4804 14.98336047 59258,14.98336047,0.0002588,LEO
55395,STARLINK-5274,2023,96.11,290.0,+,70.0,Active,1,LEO,USA,USA,Commercial,Communications,Falcon,1 55395U 23014E   24046.60667175 -.00000459  00000+0 -30671-4 0  9991,2 55395  70.0011 163.1253 0003018 267.9216  92.1598 14.98323483 59254,14.98323483,0.0003018,LEO
55396,STARLINK-5283,2023,96.11,290.0,+,70.0,Active,1,LEO,USA,USA,Commercial,Communications,Falcon,1 55396U 23014F   24046.60249926  .00000287  00000+0  31827-4 0  9993,2 55396  70.0014 163.1223 0002753 266.6561  93.4283 14.98323222 59255,14.98323222,0.0002753,LEO
55397,STARLINK-5224,2023,96.11,290.0,+,70.0,Active,1,LEO,USA,USA,Commercial,Communications,Falcon,1 55397U 23014G   24046.56473269  .00000070  00000+0  13699-4 0  9995,2 55397  70.0000 143.5076 0002961 269.8205  90.2615 14.98322537 59735,14.98322537,0.0002961,LEO
55398,STARLINK-5275,2023,96.11,290.0,+,70.0,Active,1,LEO,USA,USA,Commercial,Communications,Falcon,1 55398U 23014H   24046.61919487 -.00000395  00000+0 -25312-4 0  9996,2 55398  70.0018 163.1831 0002312 250.4247 109.6663 14.98322266 59258,14.98322266,0.0002312,LEO
55399,STARLINK-5276,2023,96.11,290.0,+,70.0,Active,1,LEO,USA,USA,Commercial,Communications,Falcon,1 55399U 23014J   24046.61084619  .00000358  00000+0  37769-4 0  9993,2 55399  70.0010 163.1505 0002881 268.5991  91.4839 14.98323880 59252,14.9832388,0.0002881,LEO
55400,STARLINK-5632,2023,96.11,290.0,+,70.0,Active,1,LEO,USA,USA,Commercial,Communications,Falcon,1 55400U 23014K   24046.49402393 -.00000076  00000+0  14114-5 0  9993,2 55400  70.0017 163.5466 0002839 266.5977  93.4858 14.98320555 59234,14.98320555,0.0002839,LEO
55401,STARLINK-5076,2023,96.11,290.0,+,70.0,Active,1,LEO,USA,USA,Commercial,Communications,Falcon,1 55401U 23014L   24046.61502380 -.00001334  00000+0 -10405-3 0  9991,2 55401  70.0006 163.1643 0002879 270.5656  89.5173 14.98318664 59255,14.98318664,0.0002879,LEO
55402,STARLINK-5071,2023,96.11,290.0,+,70.0,Active,1,LEO,USA,USA,Commercial,Communications,Falcon,1 55402U 23014M   24046.50236797  .00000004  00000+0  80948-5 0  9998,2 55402  70.0017 163.5751 0002583 272.3495  87.7369 14.98325356 59236,14.98325356,0.0002583,LEO
55403,STARLINK-5597,2023,96.11,290.0,+,70.0,Active,1,LEO,USA,USA,Commercial,Communications,Falcon,1 55403U 23014N   24046.48984942  .00000306  00000+0  33480-4 0  9991,2 55403  70.0020 163.5339 0002899 271.4621  88.6206 14.98318791 59239,14.98318791,0.0002899,LEO
55404,STARLINK-5607,2023,96.11,290.0,+,70.0,Active,1,LEO,USA,USA,Commercial,Communications,Falcon,1 55404U 23014P   24046.57748318 -.00000622  00000+0 -44333-4 0  9999,2 55404  70.0017 163.4380 0002526 266.5311  93.5559 14.98320217 59242,14.98320217,0.0002526,LEO
55405,STARLINK-5623,2023,96.11,290.0,+,70.0,Active,1,LEO,USA,USA,Commercial,Communications,Falcon,1 55405U 23014Q   24046.56495146 -.00007820  00000+0 -64786-3 0  9997,2 55405  70.0017 163.3933 0002164 261.5582  98.5332 14.98359839 59245,14.98359839,0.0002164,LEO
55406,STARLINK-5630,2023,96.11,290.0,+,70.0,Active,1,LEO,USA,USA,Commercial,Communications,Falcon,1 55406U 23014R   24046.71517632 -.00001606  00000+0 -12683-3 0  9995,2 55406  70.0013 163.1162 0003029 263.8716  96.2098 14.98328493 58323,14.98328493,0.0003029,LEO
55407,STARLINK-5019,2023,96.11,290.0,+,70.0,Active,1,LEO,USA,USA,Commercial,Communications,Falcon,1 55407U 23014S   24046.50654682  .00000158  00000+0  21016-4 0  9990,2 55407  70.0026 163.5942 0002729 268.9283  91.1564 14.98318498 59236,14.98318498,0.0002729,LEO
55408,STARLINK-5092,2023,96.11,290.0,+,70.0,Active,1,LEO,USA,USA,Commercial,Communications,Falcon,1 55408U 23014T   24046.71933307  .00001497  00000+0  13317-3 0  9999,2 55408  70.0009 163.1308 0002997 266.9331  93.1485 14.98337585 58320,14.98337585,0.0002997,LEO
55409,STARLINK-5047,2023,96.11,290.0,+,70.0,Active,1,LEO,USA,USA,Commercial,Communications,Falcon,1 55409U 23014U   24046.58182105 -.00000008  00000+0  71353-5 0  9991,2 55409  70.0012 163.4552 0003178 279.1755  80.9044 14.98321456 59244,14.98321456,0.0003178,LEO
55410,STARLINK-5633,2023,96.11,290.0,+,70.0,Active,1,LEO,USA,USA,Commercial,Communications,Falcon,1 55410U 23014V   24046.61942051  .00004181  00000+0  35827-3 0  9990,2 55410  70.0014 183.0498 0002951 267.6929  92.3892 14.98302861 58761,14.98302861,0.0002951,LEO
55411,STARLINK-5605,2023,96.11,290.0,+,70.0,Active,1,LEO,USA,USA,Commercial,Communications,Falcon,1 55411U 23014W   24046.72351889  .00002957  00000+0  25559-3 0  9996,2 55411  70.0010 163.1443 0003155 270.9708  89.1089 14.98323501 58324,14.98323501,0.0003155,LEO
55412,STARLINK-5033,2023,96.11,290.0,+,70.0,Active,1,LEO,USA,USA,Commercial,Communications,Falcon,1 55412U 23014X   24046.56117403 -.00000670  00000+0 -48367-4 0  9996,2 55412  70.0010 183.2476 0002775 268.2610  91.8232 14.98322018 58752,14.98322018,0.0002775,LEO
55413,STARLINK-5060,2023,96.11,290.0,+,70.0,Active,1,LEO,USA,USA,Commercial,Communications,Falcon,1 55413U 23014Y   24046.74878559 -.00001572  00000+0 -12406-3 0  9999,2 55413  70.0036 182.6999 0002343 256.1678 103.9220 14.98303214 57843,14.98303214,0.0002343,LEO
55414,STARLINK-5620,2023,96.11,290.0,+,70.0,Active,1,LEO,USA,USA,Commercial,Communications,Falcon,1 55414U 23014Z   24046.56517899 -.00000034  00000+0  49290-5 0  9991,2 55414  70.0010 183.2613 0002823 267.7816  92.3019 14.98324669 58756,14.98324669,0.0002823,LEO
55415,STARLINK-5618,2023,96.11,290.0,+,70.0,Active,1,LEO,USA,USA,Commercial,Communications,Falcon,1 55415U 23014AA  24046.61543965 -.00003636  00000+0 -29735-3 0  9993,2 55415  70.0012 183.0353 0002868 268.2003  91.8827 14.98295974 58769,14.98295974,0.0002868,LEO
55416,STARLINK-5624,2023,96.11,290.0,+,70.0,Active,1,LEO,USA,USA,Commercial,Communications,Falcon,1 55416U 23014AB  24046.77380192 -.00001351  00000+0 -10543-3 0  9991,2 55416  70.0005 182.7875 0002564 261.2251  98.8617 14.98338778 57840,14.98338778,0.0002564,LEO
55417,STARLINK-5616,2023,96.11,290.0,+,70.0,Active,1,LEO,USA,USA,Commercial,Communications,Falcon,1 55417U 23014AC  24046.56100468 -.00000207  00000+0 -95832-5 0  9990,2 55417  70.0014 183.2488 0002799 263.9050  96.1790 14.98323408 58751,14.98323408,0.0002799,LEO
55418,STARLINK-5030,2023,96.11,290.0,+,70.0,Active,1,LEO,USA,USA,Commercial,Communications,Falcon,1 55418U 23014AD  24046.58187939 -.00000472  00000+0 -31768-4 0  9992,2 55418  70.0001 183.3211 0002954 270.5252  89.5569 14.98320798 58753,14.98320798,0.0002954,LEO
55419,STARLINK-5629,2023,96.11,290.0,+,70.0,Active,1,LEO,USA,USA,Commercial,Communications,Falcon,1 55419U 23014AE  24046.56935338 -.00000484  00000+0 -32805-4 0  9991,2 55419  70.0009 183.2767 0002837 270.5429  89.5405 14.98324709 58758,14.98324709,0.0002837,LEO
55420,STARLINK-5604,2023,96.11,290.0,+,70.0,Active,1,LEO,USA,USA,Commercial,Communications,Falcon,1 55420U 23014AF  24046.60645001 -.00000187  00000+0 -78481-5 0  9994,2 55420  69.9999 143.2742 0002966 269.5323  90.5496 14.98320079 59746,14.98320079,0.0002966,LEO
55421,STARLINK-5598,2023,96.11,290.0,+,70.0,Active,1,LEO,USA,USA,Commercial,Communications,Falcon,1 55421U 23014AG  24046.57771007 -.00002237  00000+0 -17970-3 0  9999,2 55421  70.0000 183.3058 0003304 264.5909  95.4874 14.98331508 58753,14.98331508,0.0003304,LEO
